ORBCOMM-X [-]           
1 21576U 91050C   23250.00082197  .00000406  00000+0  13654-3 0  9996
2 21576  98.4285 316.3238 0003488   5.7471 354.3758 14.42160651688739
ORBCOMM FM01 [-]        
1 23545U 95017A   23249.68044885  .00004494  00000+0  65766-3 0  9997
2 23545  69.9676 234.2020 0007499 242.5216 117.5169 14.76293316516259
ORBCOMM FM02 [-]        
1 23546U 95017B   23250.31490834  .00005927  00000+0  87496-3 0  9995
2 23546  69.9692 251.6155 0008892 232.4928 127.5412 14.75725217516303
ORBCOMM FM08 [-]        
1 25112U 97084A   23250.21166970  .00001670  00000+0  55673-3 0  9995
2 25112  45.0144 230.8247 0008007 229.5899 130.4253 14.41176941347781
ORBCOMM FM10 [-]        
1 25113U 97084B   23249.99886927  .00001773  00000+0  58906-3 0  9996
2 25113  45.0156 233.5376 0004721 208.9341 151.1248 14.41123046347748
ORBCOMM FM11 [+]        
1 25114U 97084C   23249.99800008  .00001603  00000+0  53804-3 0  9997
2 25114  45.0141 233.4240 0005424 205.9775 154.0803 14.41011123347731
ORBCOMM FM12 [-]        
1 25115U 97084D   23249.95399342  .00001539  00000+0  51848-3 0  9992
2 25115  45.0146 233.2708 0004614 211.6117 148.4456 14.41007736347734
ORBCOMM FM09 [-]        
1 25116U 97084E   23249.75235471  .00001574  00000+0  52942-3 0  9998
2 25116  45.0153 234.8573 0004985 187.9218 172.1553 14.40987005347678
